[
  {
    "COMMENT": "GENERATED VIA SPACETRACK.ORG API",
    "ORIGINATOR": "18 SPCS",
    "NORAD_CAT_ID": "43437",
    "OBJECT_NAME": "SENTINEL 3B",
    "OBJECT_TYPE": "PAYLOAD",
    "CLASSIFICATION_TYPE": "U",
    "INTLDES": "18039A",
    "EPOCH": "2023-04-25 04:21:15",
    "EPOCH_MICROSECONDS": "695424",
    "MEAN_MOTION": "14.26731873",
    "ECCENTRICITY": "0.0001292",
    "INCLINATION": "98.6305",
    "RA_OF_ASC_NODE": "183.0263",
    "ARG_OF_PERICENTER": "85.373",
    "MEAN_ANOMALY": "274.7598",
    "EPHEMERIS_TYPE": "0",
    "ELEMENT_SET_NO": "999",
    "REV_AT_EPOCH": "26028",
    "BSTAR": "0.00011973",
    "MEAN_MOTION_DOT": "0.00000246",
    "MEAN_MOTION_DDOT": "0",
    "FILE": "3893695",
    "TLE_LINE0": "0 SENTINEL 3B",
    "TLE_LINE1": "1 43437U 18039A   23115.18143166  .00000246  00000-0  11973-3 0  9990",
    "TLE_LINE2": "2 43437  98.6305 183.0263 0001292  85.3730 274.7598 14.26731873260289",
    "OBJECT_ID": "2018-039A",
    "OBJECT_NUMBER": "43437",
    "SEMIMAJOR_AXIS": "7180.813",
    "PERIOD": "100.930",
    "APOGEE": "803.605",
    "PERIGEE": "801.750",
    "DECAYED": "0"
  },
  {
    "COMMENT": "GENERATED VIA SPACETRACK.ORG API",
    "ORIGINATOR": "18 SPCS",
    "NORAD_CAT_ID": "43437",
    "OBJECT_NAME": "SENTINEL 3B",
    "OBJECT_TYPE": "PAYLOAD",
    "CLASSIFICATION_TYPE": "U",
    "INTLDES": "18039A",
    "EPOCH": "2023-04-25 04:21:15",
    "EPOCH_MICROSECONDS": "695424",
    "MEAN_MOTION": "14.26731873",
    "ECCENTRICITY": "0.0001292",
    "INCLINATION": "98.6305",
    "RA_OF_ASC_NODE": "183.0263",
    "ARG_OF_PERICENTER": "85.373",
    "MEAN_ANOMALY": "274.7598",
    "EPHEMERIS_TYPE": "0",
    "ELEMENT_SET_NO": "999",
    "REV_AT_EPOCH": "26028",
    "BSTAR": "0.00011973",
    "MEAN_MOTION_DOT": "0.00000246",
    "MEAN_MOTION_DDOT": "0",
    "FILE": "3894092",
    "TLE_LINE0": "0 SENTINEL 3B",
    "TLE_LINE1": "1 43437U 18039A   23115.18143166  .00000246  00000-0  11973-3 0  9990",
    "TLE_LINE2": "2 43437  98.6305 183.0263 0001292  85.3730 274.7598 14.26731873260289",
    "OBJECT_ID": "2018-039A",
    "OBJECT_NUMBER": "43437",
    "SEMIMAJOR_AXIS": "7180.813",
    "PERIOD": "100.930",
    "APOGEE": "803.605",
    "PERIGEE": "801.750",
    "DECAYED": "0"
  },
  {
    "COMMENT": "GENERATED VIA SPACETRACK.ORG API",
    "ORIGINATOR": "18 SPCS",
    "NORAD_CAT_ID": "43437",
    "OBJECT_NAME": "SENTINEL 3B",
    "OBJECT_TYPE": "PAYLOAD",
    "CLASSIFICATION_TYPE": "U",
    "INTLDES": "18039A",
    "EPOCH": "2023-04-26 03:55:05",
    "EPOCH_MICROSECONDS": "33280",
    "MEAN_MOTION": "14.26732459",
    "ECCENTRICITY": "0.0001286",
    "INCLINATION": "98.6303",
    "RA_OF_ASC_NODE": "183.9947",
    "ARG_OF_PERICENTER": "85.3715",
    "MEAN_ANOMALY": "274.7612",
    "EPHEMERIS_TYPE": "0",
    "ELEMENT_SET_NO": "999",
    "REV_AT_EPOCH": "26042",
    "BSTAR": "0.00011266",
    "MEAN_MOTION_DOT": "0.00000229",
    "MEAN_MOTION_DDOT": "0",
    "FILE": "3894260",
    "TLE_LINE0": "0 SENTINEL 3B",
    "TLE_LINE1": "1 43437U 18039A   23116.16325270  .00000229  00000-0  11266-3 0  9993",
    "TLE_LINE2": "2 43437  98.6303 183.9947 0001286  85.3715 274.7612 14.26732459260425",
    "OBJECT_ID": "2018-039A",
    "OBJECT_NUMBER": "43437",
    "SEMIMAJOR_AXIS": "7180.811",
    "PERIOD": "100.930",
    "APOGEE": "803.599",
    "PERIGEE": "801.752",
    "DECAYED": "0"
  },
  {
    "COMMENT": "GENERATED VIA SPACETRACK.ORG API",
    "ORIGINATOR": "18 SPCS",
    "NORAD_CAT_ID": "43437",
    "OBJECT_NAME": "SENTINEL 3B",
    "OBJECT_TYPE": "PAYLOAD",
    "CLASSIFICATION_TYPE": "U",
    "INTLDES": "18039A",
    "EPOCH": "2023-04-27 03:28:54",
    "EPOCH_MICROSECONDS": "342624",
    "MEAN_MOTION": "14.26733037",
    "ECCENTRICITY": "0.0001275",
    "INCLINATION": "98.6302",
    "RA_OF_ASC_NODE": "184.9631",
    "ARG_OF_PERICENTER": "85.4329",
    "MEAN_ANOMALY": "274.6997",
    "EPHEMERIS_TYPE": "0",
    "ELEMENT_SET_NO": "999",
    "REV_AT_EPOCH": "26056",
    "BSTAR": "0.00010604",
    "MEAN_MOTION_DOT": "0.00000213",
    "MEAN_MOTION_DDOT": "0",
    "FILE": "3894352",
    "TLE_LINE0": "0 SENTINEL 3B",
    "TLE_LINE1": "1 43437U 18039A   23117.14507341  .00000213  00000-0  10604-3 0  9991",
    "TLE_LINE2": "2 43437  98.6302 184.9631 0001275  85.4329 274.6997 14.26733037260568",
    "OBJECT_ID": "2018-039A",
    "OBJECT_NUMBER": "43437",
    "SEMIMAJOR_AXIS": "7180.809",
    "PERIOD": "100.930",
    "APOGEE": "803.589",
    "PERIGEE": "801.758",
    "DECAYED": "0"
  },
  {
    "COMMENT": "GENERATED VIA SPACETRACK.ORG API",
    "ORIGINATOR": "18 SPCS",
    "NORAD_CAT_ID": "43437",
    "OBJECT_NAME": "SENTINEL 3B",
    "OBJECT_TYPE": "PAYLOAD",
    "CLASSIFICATION_TYPE": "U",
    "INTLDES": "18039A",
    "EPOCH": "2023-04-27 10:12:51",
    "EPOCH_MICROSECONDS": "276672",
    "MEAN_MOTION": "14.2673324",
    "ECCENTRICITY": "0.0001279",
    "INCLINATION": "98.6303",
    "RA_OF_ASC_NODE": "185.2399",
    "ARG_OF_PERICENTER": "85.8462",
    "MEAN_ANOMALY": "274.2865",
    "EPHEMERIS_TYPE": "0",
    "ELEMENT_SET_NO": "999",
    "REV_AT_EPOCH": "26060",
    "BSTAR": "0.00010651",
    "MEAN_MOTION_DOT": "0.00000214",
    "MEAN_MOTION_DDOT": "0",
    "FILE": "3894751",
    "TLE_LINE0": "0 SENTINEL 3B",
    "TLE_LINE1": "1 43437U 18039A   23117.42559348  .00000214  00000-0  10651-3 0  9999",
    "TLE_LINE2": "2 43437  98.6303 185.2399 0001279  85.8462 274.2865 14.26733240260601",
    "OBJECT_ID": "2018-039A",
    "OBJECT_NUMBER": "43437",
    "SEMIMAJOR_AXIS": "7180.808",
    "PERIOD": "100.930",
    "APOGEE": "803.592",
    "PERIGEE": "801.755",
    "DECAYED": "0"
  },
  {
    "COMMENT": "GENERATED VIA SPACETRACK.ORG API",
    "ORIGINATOR": "18 SPCS",
    "NORAD_CAT_ID": "43437",
    "OBJECT_NAME": "SENTINEL 3B",
    "OBJECT_TYPE": "PAYLOAD",
    "CLASSIFICATION_TYPE": "U",
    "INTLDES": "18039A",
    "EPOCH": "2023-04-28 04:43:42",
    "EPOCH_MICROSECONDS": "862368",
    "MEAN_MOTION": "14.26733579",
    "ECCENTRICITY": "0.0001276",
    "INCLINATION": "98.6302",
    "RA_OF_ASC_NODE": "186.0007",
    "ARG_OF_PERICENTER": "85.603",
    "MEAN_ANOMALY": "274.5296",
    "EPHEMERIS_TYPE": "0",
    "ELEMENT_SET_NO": "999",
    "REV_AT_EPOCH": "26071",
    "BSTAR": "0.000098351",
    "MEAN_MOTION_DOT": "0.00000194",
    "MEAN_MOTION_DDOT": "0",
    "FILE": "3895198",
    "TLE_LINE0": "0 SENTINEL 3B",
    "TLE_LINE1": "1 43437U 18039A   23118.19702387  .00000194  00000-0  98351-4 0  9998",
    "TLE_LINE2": "2 43437  98.6302 186.0007 0001276  85.6030 274.5296 14.26733579260719",
    "OBJECT_ID": "2018-039A",
    "OBJECT_NUMBER": "43437",
    "SEMIMAJOR_AXIS": "7180.807",
    "PERIOD": "100.930",
    "APOGEE": "803.588",
    "PERIGEE": "801.756",
    "DECAYED": "0"
  },
  {
    "COMMENT": "GENERATED VIA SPACETRACK.ORG API",
    "ORIGINATOR": "18 SPCS",
    "NORAD_CAT_ID": "43437",
    "OBJECT_NAME": "SENTINEL 3B",
    "OBJECT_TYPE": "PAYLOAD",
    "CLASSIFICATION_TYPE": "U",
    "INTLDES": "18039A",
    "EPOCH": "2023-04-28 11:27:39",
    "EPOCH_MICROSECONDS": "800736",
    "MEAN_MOTION": "14.26733762",
    "ECCENTRICITY": "0.0001317",
    "INCLINATION": "98.6302",
    "RA_OF_ASC_NODE": "186.2775",
    "ARG_OF_PERICENTER": "84.761",
    "MEAN_ANOMALY": "275.3721",
    "EPHEMERIS_TYPE": "0",
    "ELEMENT_SET_NO": "999",
    "REV_AT_EPOCH": "26075",
    "BSTAR": "0.000099641",
    "MEAN_MOTION_DOT": "0.00000197",
    "MEAN_MOTION_DDOT": "0",
    "FILE": "3895770",
    "TLE_LINE0": "0 SENTINEL 3B",
    "TLE_LINE1": "1 43437U 18039A   23118.47754399  .00000197  00000-0  99641-4 0  9995",
    "TLE_LINE2": "2 43437  98.6302 186.2775 0001317  84.7610 275.3721 14.26733762260753",
    "OBJECT_ID": "2018-039A",
    "OBJECT_NUMBER": "43437",
    "SEMIMAJOR_AXIS": "7180.806",
    "PERIOD": "100.930",
    "APOGEE": "803.617",
    "PERIGEE": "801.726",
    "DECAYED": "0"
  },
  {
    "COMMENT": "GENERATED VIA SPACETRACK.ORG API",
    "ORIGINATOR": "18 SPCS",
    "NORAD_CAT_ID": "43437",
    "OBJECT_NAME": "SENTINEL 3B",
    "OBJECT_TYPE": "PAYLOAD",
    "CLASSIFICATION_TYPE": "U",
    "INTLDES": "18039A",
    "EPOCH": "2023-04-29 04:17:32",
    "EPOCH_MICROSECONDS": "118144",
    "MEAN_MOTION": "14.26734069",
    "ECCENTRICITY": "0.0001305",
    "INCLINATION": "98.6301",
    "RA_OF_ASC_NODE": "186.9692",
    "ARG_OF_PERICENTER": "84.2912",
    "MEAN_ANOMALY": "275.8417",
    "EPHEMERIS_TYPE": "0",
    "ELEMENT_SET_NO": "999",
    "REV_AT_EPOCH": "26085",
    "BSTAR": "0.000090152",
    "MEAN_MOTION_DOT": "0.00000174",
    "MEAN_MOTION_DDOT": "0",
    "FILE": "3896517",
    "TLE_LINE0": "0 SENTINEL 3B",
    "TLE_LINE1": "1 43437U 18039A   23119.17884396  .00000174  00000-0  90152-4 0  9997",
    "TLE_LINE2": "2 43437  98.6301 186.9692 0001305  84.2912 275.8417 14.26734069260853",
    "OBJECT_ID": "2018-039A",
    "OBJECT_NUMBER": "43437",
    "SEMIMAJOR_AXIS": "7180.805",
    "PERIOD": "100.930",
    "APOGEE": "803.607",
    "PERIGEE": "801.733",
    "DECAYED": "0"
  }
]